{"type":"FeatureCollection","features":[{"type":"Feature","id":0,"geometry":{"type":"Point","coordinates":[119.70009088337015,-5.2612108966561726]},"properties":{"FID":0,"Id":0,"Dusun":"Dusun Tombongi"}},{"type":"Feature","id":1,"geometry":{"type":"Point","coordinates":[119.70735125852879,-5.2643600473386174]},"properties":{"FID":1,"Id":0,"Dusun":"Dusun Tombongi"}},{"type":"Feature","id":2,"geometry":{"type":"Point","coordinates":[119.72080991797674,-5.2700340537256096]},"properties":{"FID":2,"Id":0,"Dusun":"Dusun Kampung Beru"}},{"type":"Feature","id":3,"geometry":{"type":"Point","coordinates":[119.73529036839226,-5.2706553802996847]},"properties":{"FID":3,"Id":0,"Dusun":"Dusun Galesong"}},{"type":"Feature","id":4,"geometry":{"type":"Point","coordinates":[119.75733619419151,-5.2746762968334506]},"properties":{"FID":4,"Id":0,"Dusun":"Dusun Bontoloe"}},{"type":"Feature","id":5,"geometry":{"type":"Point","coordinates":[119.75953518322278,-5.2777899719415426]},"properties":{"FID":5,"Id":0,"Dusun":"Dusun Bontoloe"}}]}