{"type":"FeatureCollection","features":[{"type":"Feature","id":0,"geometry":{"type":"Point","coordinates":[119.75659645937803,-5.2746805093972959]},"properties":{"FID":0,"Id":0,"Keterangan":"Puskesmas Pembantu Lebong","Dusun":"Dusun Bontoloe"}},{"type":"Feature","id":1,"geometry":{"type":"Point","coordinates":[119.75646999462097,-5.2746877065785913]},"properties":{"FID":1,"Id":0,"Keterangan":"Posyandu Anggrek 1","Dusun":"Dusun Bontoloe"}},{"type":"Feature","id":2,"geometry":{"type":"Point","coordinates":[119.73732754871305,-5.271912679104874]},"properties":{"FID":2,"Id":0,"Keterangan":"Posyandu Anggrek 2","Dusun":"Dusun Galesong"}},{"type":"Feature","id":3,"geometry":{"type":"Point","coordinates":[119.707534919382,-5.2643065458748994]},"properties":{"FID":3,"Id":0,"Keterangan":"Posyandu Anggrek 4","Dusun":"Dusun Tombongi"}},{"type":"Feature","id":4,"geometry":{"type":"Point","coordinates":[119.72063023517498,-5.2700378380374211]},"properties":{"FID":4,"Id":0,"Keterangan":"Posyandu Anggrek 4","Dusun":"Dusun Kampung Beru"}}]}