{"type":"FeatureCollection","features":[{"type":"Feature","id":0,"geometry":{"type":"Point","coordinates":[119.73722419537417,-5.2714577517872483]},"properties":{"FID":0,"Id":0,"Keterangan":"SD Inpres Mala'lang","Dusun":"Dusun Galesong"}},{"type":"Feature","id":1,"geometry":{"type":"Point","coordinates":[119.75691147677347,-5.2738903237871932]},"properties":{"FID":1,"Id":0,"Keterangan":"SD Negeri Lebong","Dusun":"Dusun Bontoloe"}},{"type":"Feature","id":2,"geometry":{"type":"Point","coordinates":[119.75534768115675,-5.2743709341153737]},"properties":{"FID":2,"Id":0,"Keterangan":"Pendidikan Anak Usia Dini (PAUD) SPAS LONJOBOKO","Dusun":"Dusun Bontoloe"}}]}