{"type":"FeatureCollection","features":[{"type":"Feature","id":0,"geometry":{"type":"Point","coordinates":[119.70152714390638,-5.2621790376884157]},"properties":{"FID":0,"Id":0,"Keterangan":"Pabrik","Nama":" ","Dusun":"Dusun Tombongi"}},{"type":"Feature","id":1,"geometry":{"type":"Point","coordinates":[119.70402779977108,-5.2627558432851718]},"properties":{"FID":1,"Id":0,"Keterangan":"Tambang","Nama":"PT. Cipta Beton Swar Perkasa","Dusun":"Dusun Tombongi"}},{"type":"Feature","id":2,"geometry":{"type":"Point","coordinates":[119.70490406359046,-5.2628045248426245]},"properties":{"FID":2,"Id":0,"Keterangan":"Tambang","Nama":" ","Dusun":"Dusun Tombongi"}},{"type":"Feature","id":3,"geometry":{"type":"Point","coordinates":[119.70428715573561,-5.2623358237982742]},"properties":{"FID":3,"Id":0,"Keterangan":"Tambang","Nama":" ","Dusun":"Dusun Tombongi"}},{"type":"Feature","id":4,"geometry":{"type":"Point","coordinates":[119.70781474524482,-5.262980677193756]},"properties":{"FID":4,"Id":0,"Keterangan":"Tambang","Nama":" ","Dusun":"Dusun Tombongi"}},{"type":"Feature","id":5,"geometry":{"type":"Point","coordinates":[119.70808426552387,-5.264329449381921]},"properties":{"FID":5,"Id":0,"Keterangan":"Tambang","Nama":" ","Dusun":"Dusun Tombongi"}},{"type":"Feature","id":6,"geometry":{"type":"Point","coordinates":[119.70581559071336,-5.2659609376784537]},"properties":{"FID":6,"Id":0,"Keterangan":"Tambang","Nama":" ","Dusun":"Dusun Tombongi"}},{"type":"Feature","id":7,"geometry":{"type":"Point","coordinates":[119.70815460396631,-5.2656241631422214]},"properties":{"FID":7,"Id":0,"Keterangan":"Tambang","Nama":" ","Dusun":"Dusun Tombongi"}},{"type":"Feature","id":8,"geometry":{"type":"Point","coordinates":[119.72531134926456,-5.273057096948051]},"properties":{"FID":8,"Id":0,"Keterangan":"Tambang","Nama":"","Dusun":""}},{"type":"Feature","id":9,"geometry":{"type":"Point","coordinates":[119.74024880255014,-5.2726433231869345]},"properties":{"FID":9,"Id":0,"Keterangan":"Tambang","Nama":"PT. Batu Cipta Bahana","Dusun":"Dusun Galesong"}},{"type":"Feature","id":10,"geometry":{"type":"Point","coordinates":[119.74356252664697,-5.2737274514597923]},"properties":{"FID":10,"Id":0,"Keterangan":"Lapangan Desa","Nama":"Lapangan Desa Lonjoboko Dusun Galesong","Dusun":"Dusun Galesong"}},{"type":"Feature","id":11,"geometry":{"type":"Point","coordinates":[119.74728601776316,-5.2732638021019458]},"properties":{"FID":11,"Id":0,"Keterangan":"Kopdes","Nama":"Koperasi Desa/Kelurahan Lonjoboko","Dusun":"Dusun Galesong"}},{"type":"Feature","id":12,"geometry":{"type":"Point","coordinates":[119.75758847184036,-5.2733598307213212]},"properties":{"FID":12,"Id":0,"Keterangan":"Bumdes","Nama":"Peternakan Telur Ayam, Kelompok Tani Ternak Bajeng Raya, Kelompok Tani Hutan Manggara Dupa","Dusun":"Dusun Bontoloe"}},{"type":"Feature","id":13,"geometry":{"type":"Point","coordinates":[119.75757627624063,-5.2767219952168487]},"properties":{"FID":13,"Id":0,"Keterangan":"Tambang","Nama":" CV. Janong karya mineral","Dusun":"Dusun Bontoloe"}},{"type":"Feature","id":14,"geometry":{"type":"Point","coordinates":[119.75683266538452,-5.2748579482880071]},"properties":{"FID":14,"Id":0,"Keterangan":"Pasar","Nama":"Pasar Rakyat Lebong","Dusun":"Dusun Bontoloe"}}]}